{
  "norad_id": 53163,
  "name": "STARLINK-4104",
  "history": [
    {
      "epoch": "2026-03-28T09:14:01.699296Z",
      "apogee_km": 540.6206084151363,
      "perigee_km": 538.8032894962453,
      "latitude_deg": -4.8867939698367274e-05,
      "longitude_deg": 116.02672862789193,
      "height_km": 540.5027284597428,
      "semi_major_axis_km": 6917.8489489556905,
      "eccentricity": 0.00013135,
      "inclination_deg": 53.2165,
      "raan_deg": 80.3398,
      "arg_perigee_deg": 83.3694,
      "mean_anomaly_deg": 276.7447,
      "mean_motion_rev_day": 15.08850286
    },
    {
      "epoch": "2026-03-29T04:18:39.583584Z",
      "apogee_km": 540.6613360859419,
      "perigee_km": 538.7935126913571,
      "latitude_deg": -4.765189361902417e-05,
      "longitude_deg": -174.48389417370439,
      "height_km": 540.573822169573,
      "semi_major_axis_km": 6917.864424388649,
      "eccentricity": 0.000135,
      "inclination_deg": 53.2164,
      "raan_deg": 76.7705,
      "arg_perigee_deg": 86.9784,
      "mean_anomaly_deg": 273.1362,
      "mean_motion_rev_day": 15.08845223
    },
    {
      "epoch": "2026-03-30T02:34:03.407232Z",
      "apogee_km": 540.7080328302945,
      "perigee_km": 538.7544268421889,
      "latitude_deg": 1.4642825194760166e-05,
      "longitude_deg": -153.41035932330402,
      "height_km": 540.5912313404145,
      "semi_major_axis_km": 6917.868229836241,
      "eccentricity": 0.0001412,
      "inclination_deg": 53.2173,
      "raan_deg": 72.6073,
      "arg_perigee_deg": 87.91,
      "mean_anomaly_deg": 272.2054,
      "mean_motion_rev_day": 15.08843978
    },
    {
      "epoch": "2026-03-30T05:44:49.591968Z",
      "apogee_km": 540.703621800063,
      "perigee_km": 538.7552738936911,
      "latitude_deg": -2.5538963330023707e-05,
      "longitude_deg": 158.17189730261214,
      "height_km": 540.5803514643741,
      "semi_major_axis_km": 6917.866447846877,
      "eccentricity": 0.00014082,
      "inclination_deg": 53.2172,
      "raan_deg": 72.0126,
      "arg_perigee_deg": 87.3687,
      "mean_anomaly_deg": 272.7466,
      "mean_motion_rev_day": 15.08844561
    },
    {
      "epoch": "2026-03-30T08:55:35.881248Z",
      "apogee_km": 540.6988022871428,
      "perigee_km": 538.7633211608336,
      "latitude_deg": -1.2786400203765644e-05,
      "longitude_deg": 109.75395649402819,
      "height_km": 540.5713823689159,
      "semi_major_axis_km": 6917.868061723988,
      "eccentricity": 0.00013989,
      "inclination_deg": 53.2174,
      "raan_deg": 71.4181,
      "arg_perigee_deg": 86.7218,
      "mean_anomaly_deg": 273.3934,
      "mean_motion_rev_day": 15.08844033
    }
  ]
}